{
  "type": "FeatureCollection",
  "features": [
    {
      "type": "Feature",
      "properties": {
        "norad_id": 24946,
        "name": "IRIDIUM 33",
        "group": "iridium-33-debris",
        "lat": 26.06279586959268,
        "lon": 64.03345012691952,
        "alt_km": 777.9526043260712,
        "timestamp": "2025-12-26T22:28:06.169674+00:00",
        "meta_object_name": "IRIDIUM 33",
        "meta_object_id": "1997-051C",
        "meta_epoch": "2025-12-26T13:58:46.150176",
        "meta_mean_motion": 14.350468,
        "meta_eccentricity": 0.00086556,
        "meta_inclination": 86.3856,
        "meta_ra_of_asc_node": 62.4104,
        "meta_arg_of_pericenter": 156.1022,
        "meta_mean_anomaly": 204.0578,
        "meta_ephemeris_type": 0,
        "meta_classification_type": "U",
        "meta_norad_cat_id": 24946,
        "meta_element_set_no": 999,
        "meta_rev_at_epoch": 48033,
        "meta_bstar": 0.00011738572,
        "meta_mean_motion_dot": 3.54e-06,
        "meta_mean_motion_ddot": 0,
        "tle_line1": "1 24946U 97051C   25360.58247859  .00000354  00000+0  11739-3 0  9996",
        "tle_line2": "2 24946  86.3856  62.4104 0008655 156.1022 204.0578 14.35046800480336"
      },
      "geometry": {
        "type": "Point",
        "coordinates": [
          64.03345012691952,
          26.06279586959268
        ]
      }
    },
    {
      "type": "Feature",
      "properties": {
        "norad_id": 33773,
        "name": "IRIDIUM 33 DEB",
        "group": "iridium-33-debris",
        "lat": 42.94349258359144,
        "lon": 57.93219512781184,
        "alt_km": 739.7947608079285,
        "timestamp": "2025-12-26T22:28:06.169720+00:00",
        "meta_object_name": "IRIDIUM 33 DEB",
        "meta_object_id": "1997-051L",
        "meta_epoch": "2025-12-26T13:56:59.891136",
        "meta_mean_motion": 14.43285398,
        "meta_eccentricity": 0.0013338,
        "meta_inclination": 86.3996,
        "meta_ra_of_asc_node": 54.7233,
        "meta_arg_of_pericenter": 106.7873,
        "meta_mean_anomaly": 253.4792,
        "meta_ephemeris_type": 0,
        "meta_classification_type": "U",
        "meta_norad_cat_id": 33773,
        "meta_element_set_no": 999,
        "meta_rev_at_epoch": 88547,
        "meta_bstar": 0.00030304,
        "meta_mean_motion_dot": 1.041e-05,
        "meta_mean_motion_ddot": 0,
        "tle_line1": "1 33773U 97051L   25360.58124874  .00001041  00000+0  30304-3 0  9998",
        "tle_line2": "2 33773  86.3996  54.7233 0013338 106.7873 253.4792 14.43285398885471"
      },
      "geometry": {
        "type": "Point",
        "coordinates": [
          57.93219512781184,
          42.94349258359144
        ]
      }
    },
    {
      "type": "Feature",
      "properties": {
        "norad_id": 33775,
        "name": "IRIDIUM 33 DEB",
        "group": "iridium-33-debris",
        "lat": 35.17924624921265,
        "lon": 46.06185310550982,
        "alt_km": 748.8245484765721,
        "timestamp": "2025-12-26T22:28:06.169737+00:00",
        "meta_object_name": "IRIDIUM 33 DEB",
        "meta_object_id": "1997-051N",
        "meta_epoch": "2025-12-26T14:30:38.060352",
        "meta_mean_motion": 14.41497589,
        "meta_eccentricity": 0.0015385,
        "meta_inclination": 86.3623,
        "meta_ra_of_asc_node": 43.6333,
        "meta_arg_of_pericenter": 113.6049,
        "meta_mean_anomaly": 2.3398,
        "meta_ephemeris_type": 0,
        "meta_classification_type": "U",
        "meta_norad_cat_id": 33775,
        "meta_element_set_no": 999,
        "meta_rev_at_epoch": 88340,
        "meta_bstar": 0.00033398,
        "meta_mean_motion_dot": 1.105e-05,
        "meta_mean_motion_ddot": 0,
        "tle_line1": "1 33775U 97051N   25360.60460718  .00001105  00000+0  33398-3 0  9990",
        "tle_line2": "2 33775  86.3623  43.6333 0015385 113.6049   2.3398 14.41497589883403"
      },
      "geometry": {
        "type": "Point",
        "coordinates": [
          46.06185310550982,
          35.17924624921265
        ]
      }
    },
    {
      "type": "Feature",
      "properties": {
        "norad_id": 33776,
        "name": "IRIDIUM 33 DEB",
        "group": "iridium-33-debris",
        "lat": 79.43954451812591,
        "lon": -124.90447051054066,
        "alt_km": 749.045907636586,
        "timestamp": "2025-12-26T22:28:06.169751+00:00",
        "meta_object_name": "IRIDIUM 33 DEB",
        "meta_object_id": "1997-051P",
        "meta_epoch": "2025-12-26T17:34:30.701856",
        "meta_mean_motion": 14.38258502,
        "meta_eccentricity": 0.0015882,
        "meta_inclination": 86.4031,
        "meta_ra_of_asc_node": 74.8995,
        "meta_arg_of_pericenter": 146.2524,
        "meta_mean_anomaly": 338.8136,
        "meta_ephemeris_type": 0,
        "meta_classification_type": "U",
        "meta_norad_cat_id": 33776,
        "meta_element_set_no": 999,
        "meta_rev_at_epoch": 88283,
        "meta_bstar": 0.00026587,
        "meta_mean_motion_dot": 8.29e-06,
        "meta_mean_motion_ddot": 0,
        "tle_line1": "1 33776U 97051P   25360.73229979  .00000829  00000+0  26587-3 0  9991",
        "tle_line2": "2 33776  86.4031  74.8995 0015882 146.2524 338.8136 14.38258502882839"
      },
      "geometry": {
        "type": "Point",
        "coordinates": [
          -124.90447051054066,
          79.43954451812591
        ]
      }
    },
    {
      "type": "Feature",
      "properties": {
        "norad_id": 33777,
        "name": "IRIDIUM 33 DEB",
        "group": "iridium-33-debris",
        "lat": 56.17968505103621,
        "lon": 34.45207099349145,
        "alt_km": 704.9740951092854,
        "timestamp": "2025-12-26T22:28:06.169764+00:00",
        "meta_object_name": "IRIDIUM 33 DEB",
        "meta_object_id": "1997-051Q",
        "meta_epoch": "2025-12-26T13:57:40.983840",
        "meta_mean_motion": 14.55708292,
        "meta_eccentricity": 0.0006483,
        "meta_inclination": 86.3775,
        "meta_ra_of_asc_node": 29.1803,
        "meta_arg_of_pericenter": 191.6529,
        "meta_mean_anomaly": 168.453,
        "meta_ephemeris_type": 0,
        "meta_classification_type": "U",
        "meta_norad_cat_id": 33777,
        "meta_element_set_no": 999,
        "meta_rev_at_epoch": 88735,
        "meta_bstar": 0.00083346,
        "meta_mean_motion_dot": 3.664e-05,
        "meta_mean_motion_ddot": 0,
        "tle_line1": "1 33777U 97051Q   25360.58172435  .00003664  00000+0  83346-3 0  9995",
        "tle_line2": "2 33777  86.3775  29.1803 0006483 191.6529 168.4530 14.55708292887353"
      },
      "geometry": {
        "type": "Point",
        "coordinates": [
          34.45207099349145,
          56.17968505103621
        ]
      }
    },
    {
      "type": "Feature",
      "properties": {
        "norad_id": 33850,
        "name": "IRIDIUM 33 DEB",
        "group": "iridium-33-debris",
        "lat": 50.77592010855189,
        "lon": 28.570768293789822,
        "alt_km": 743.1053341297866,
        "timestamp": "2025-12-26T22:28:06.169776+00:00",
        "meta_object_name": "IRIDIUM 33 DEB",
        "meta_object_id": "1997-051T",
        "meta_epoch": "2025-12-26T12:56:59.127072",
        "meta_mean_motion": 14.42181449,
        "meta_eccentricity": 0.0013344,
        "meta_inclination": 86.3409,
        "meta_ra_of_asc_node": 24.245,
        "meta_arg_of_pericenter": 120.0989,
        "meta_mean_anomaly": 33.2041,
        "meta_ephemeris_type": 0,
        "meta_classification_type": "U",
        "meta_norad_cat_id": 33850,
        "meta_element_set_no": 999,
        "meta_rev_at_epoch": 88351,
        "meta_bstar": 0.00043867,
        "meta_mean_motion_dot": 1.465e-05,
        "meta_mean_motion_ddot": 0,
        "tle_line1": "1 33850U 97051T   25360.53957323  .00001465  00000+0  43867-3 0  9990",
        "tle_line2": "2 33850  86.3409  24.2450 0013344 120.0989  33.2041 14.42181449883518"
      },
      "geometry": {
        "type": "Point",
        "coordinates": [
          28.570768293789822,
          50.77592010855189
        ]
      }
    },
    {
      "type": "Feature",
      "properties": {
        "norad_id": 33853,
        "name": "IRIDIUM 33 DEB",
        "group": "iridium-33-debris",
        "lat": 35.42801931948066,
        "lon": -13.561277144162085,
        "alt_km": 1032.5329110697594,
        "timestamp": "2025-12-26T22:28:06.169788+00:00",
        "meta_object_name": "IRIDIUM 33 DEB",
        "meta_object_id": "1997-051W",
        "meta_epoch": "2025-12-26T10:52:30.839808",
        "meta_mean_motion": 13.99126555,
        "meta_eccentricity": 0.0207803,
        "meta_inclination": 86.0001,
        "meta_ra_of_asc_node": 343.7973,
        "meta_arg_of_pericenter": 193.5253,
        "meta_mean_anomaly": 291.4961,
        "meta_ephemeris_type": 0,
        "meta_classification_type": "U",
        "meta_norad_cat_id": 33853,
        "meta_element_set_no": 999,
        "meta_rev_at_epoch": 85537,
        "meta_bstar": 0.0011675,
        "meta_mean_motion_dot": 2.052e-05,
        "meta_mean_motion_ddot": 0,
        "tle_line1": "1 33853U 97051W   25360.45313472  .00002052  00000+0  11675-2 0  9999",
        "tle_line2": "2 33853  86.0001 343.7973 0207803 193.5253 291.4961 13.99126555855379"
      },
      "geometry": {
        "type": "Point",
        "coordinates": [
          -13.561277144162085,
          35.42801931948066
        ]
      }
    }
  ]
}